NORAD_CAT_ID,OBJECT_NAME,OBJECT_TYPE,EPOCH,MEAN_MOTION,ECCENTRICITY,INCLINATION,RA_OF_ASC_NODE,ARG_OF_PERICENTER,MEAN_ANOMALY,BSTAR,MEAN_MOTION_DOT,MEAN_MOTION_DDOT,TLE_LINE0,TLE_LINE1,TLE_LINE2,SEMIMAJOR_AXIS,PERIOD,APOGEE,PERIGEE,DECAYED
53610.0,STARLINK-4610,PAYLOAD,2023-04-10 14:40:49,15.08867382,0.0001227,53.2172,331.0791,119.0971,241.0145,0.00063144,9.783e-05,0.0,0 STARLINK-4610,1 53610U 22104Y   23100.61168013  .00009783  00000-0  63144-3 0  9994,2 53610  53.2172 331.0791 0001227 119.0971 241.0145 15.08867382 34991,6917.797,95.436,540.511,538.813,0.0
53610.0,STARLINK-4610,PAYLOAD,2023-04-11 14:31:36,15.08831934,7.41e-05,53.2149,326.6117,76.1535,283.9539,-0.00035347,-5.907e-05,0.0,0 STARLINK-4610,1 53610U 22104Y   23101.60528281 -.00005907  00000-0 -35347-3 0  9991,2 53610  53.2149 326.6117 0000741  76.1535 283.9539 15.08831934 35140,6917.905,95.438,540.283,539.257,0.0
53610.0,STARLINK-4610,PAYLOAD,2023-04-11 16:06:59,15.08832606,0.0001507,53.2174,326.32,85.2151,274.9014,-0.00039347,-6.543e-05,0.0,0 STARLINK-4610,1 53610U 22104Y   23101.67152302 -.00006543  00000-0 -39347-3 0  9996,2 53610  53.2174 326.3200 0001507  85.2151 274.9014 15.08832606 34586,6917.903,95.438,540.811,538.725,0.0
53610.0,STARLINK-4610,PAYLOAD,2023-04-12 00:03:55,15.08829329,0.0001247,53.217,324.8325,76.5067,283.6064,-0.00025023,-4.267e-05,0.0,0 STARLINK-4610,1 53610U 22104Y   23102.00272803 -.00004267  00000-0 -25023-3 0  9990,2 53610  53.2170 324.8325 0001247  76.5067 283.6064 15.08829329 35203,6917.913,95.438,540.641,538.915,0.0
53610.0,STARLINK-4610,PAYLOAD,2023-04-12 23:54:43,15.08837243,0.0001341,53.2167,320.3709,76.7258,283.3884,0.0003422,5.162e-05,0.0,0 STARLINK-4610,1 53610U 22104Y   23102.99633477  .00005162  00000-0  34220-3 0  9998,2 53610  53.2167 320.3709 0001341  76.7258 283.3884 15.08837243 35352,6917.889,95.438,540.682,538.826,0.0
53610.0,STARLINK-4610,PAYLOAD,2023-04-13 17:23:57,15.08863016,0.0001195,53.2162,317.1005,75.7791,284.3334,0.00079394,0.00012378,0.0,0 STARLINK-4610,1 53610U 22104Y   23103.72496632  .00012378  00000-0  79394-3 0  9998,2 53610  53.2162 317.1005 0001195  75.7791 284.3334 15.08863016 34894,6917.81,95.436,540.502,538.848,0.0
53610.0,STARLINK-4610,PAYLOAD,2023-04-13 20:34:42,15.08914515,0.0001171,53.2163,316.5058,90.3994,269.7132,0.0022187,0.00035272,0.0,0 STARLINK-4610,1 53610U 22104Y   23103.85743528  .00035272  00000-0  22187-2 0  9996,2 53610  53.2163 316.5058 0001171  90.3994 269.7132 15.08914515 34915,6917.653,95.433,540.328,538.708,0.0
53610.0,STARLINK-4610,PAYLOAD,2023-04-14 01:20:50,15.08936353,9.79e-05,53.2151,315.613,87.3719,272.7385,0.0024354,0.00038788,0.0,0 STARLINK-4610,1 53610U 22104Y   23104.05614405  .00038788  00000-0  24354-2 0  9993,2 53610  53.2151 315.6130 0000979  87.3719 272.7385 15.08936353 35514,6917.586,95.431,540.128,538.774,0.0
53610.0,STARLINK-4610,PAYLOAD,2023-04-15 05:57:49,15.08821809,0.000125,53.2169,310.2621,69.0524,291.0602,0.00041311,6.29e-05,0.0,0 STARLINK-4610,1 53610U 22104Y   23105.24848651  .00006290  00000-0  41311-3 0  9993,2 53610  53.2169 310.2621 0001250  69.0524 291.0602 15.08821809 35697,6917.936,95.439,540.666,538.936,0.0
53610.0,STARLINK-4610,PAYLOAD,2023-04-15 20:16:17,15.08841111,0.0001162,53.2161,307.5853,84.0311,276.0814,0.0011704,0.00018389,0.0,0 STARLINK-4610,1 53610U 22104Y   23105.84465139  .00018389  00000-0  11704-2 0  9999,2 53610  53.2161 307.5853 0001162  84.0311 276.0814 15.08841111 35784,6917.877,95.437,540.546,538.938,0.0
53610.0,STARLINK-4610,PAYLOAD,2023-04-16 13:45:32,15.08841142,0.0001423,53.2175,304.3173,83.616,276.4994,0.00055584,8.57e-05,0.0,0 STARLINK-4610,1 53610U 22104Y   23106.57329672  .00008570  00000-0  55584-3 0  9997,2 53610  53.2175 304.3173 0001423  83.6160 276.4994 15.08841142 35895,6917.877,95.437,540.726,538.757,0.0
53610.0,STARLINK-4610,PAYLOAD,2023-04-16 20:07:05,15.08844185,0.000135,53.2172,303.1271,99.2264,260.8881,0.00050798,7.807e-05,0.0,0 STARLINK-4610,1 53610U 22104Y   23106.83825560  .00007807  00000-0  50798-3 0  9997,2 53610  53.2172 303.1271 0001350  99.2264 260.8881 15.08844185 35932,6917.868,95.437,540.667,538.799,0.0
53610.0,STARLINK-4610,PAYLOAD,2023-04-17 13:36:20,15.08840762,0.0001328,53.2165,299.8548,106.662,253.4518,0.00048821,7.491e-05,0.0,0 STARLINK-4610,1 53610U 22104Y   23107.56689828  .00007491  00000-0  48821-3 0  9996,2 53610  53.2165 299.8548 0001328 106.6620 253.4518 15.08840762 36041,6917.878,95.438,540.662,538.824,0.0
53610.0,STARLINK-4610,PAYLOAD,2023-04-17 19:57:52,15.08845997,0.0001192,53.2171,298.6662,113.7916,246.3201,0.00059884,9.257e-05,0.0,0 STARLINK-4610,1 53610U 22104Y   23107.83185702  .00009257  00000-0  59884-3 0  9991,2 53610  53.2171 298.6662 0001192 113.7916 246.3201 15.08845997 36087,6917.862,95.437,540.552,538.902,0.0
53610.0,STARLINK-4610,PAYLOAD,2023-04-17 21:33:15,15.08847751,0.0001296,53.2168,298.3687,113.7785,246.3343,0.0005952,9.199e-05,0.0,0 STARLINK-4610,1 53610U 22104Y   23107.89809669  .00009199  00000-0  59520-3 0  9994,2 53610  53.2168 298.3687 0001296 113.7785 246.3343 15.08847751 36094,6917.857,95.437,540.618,538.825,0.0
53610.0,STARLINK-4610,PAYLOAD,2023-04-18 21:24:02,15.08844015,0.0001163,53.2165,293.908,110.8406,249.2711,0.00026826,3.985e-05,0.0,0 STARLINK-4610,1 53610U 22104Y   23108.89169709  .00003985  00000-0  26826-3 0  9999,2 53610  53.2165 293.9080 0001163 110.8406 249.2711 15.08844015 35674,6917.868,95.437,540.538,538.929,0.0
53610.0,STARLINK-4610,PAYLOAD,2023-04-18 22:59:25,15.08850697,9.23e-05,53.2159,293.6072,85.719,274.3907,0.0003927,5.969e-05,0.0,0 STARLINK-4610,1 53610U 22104Y   23108.95793550  .00005969  00000-0  39270-3 0  9994,2 53610  53.2159 293.6072 0000923  85.7190 274.3907 15.08850697 36252,6917.848,95.437,540.351,539.074,0.0
53610.0,STARLINK-4610,PAYLOAD,2023-04-19 18:04:03,15.08846869,0.000176,53.2169,290.045,56.1724,303.9436,0.00026952,4.005e-05,0.0,0 STARLINK-4610,1 53610U 22104Y   23109.75281740  .00004005  00000-0  26952-3 0  9999,2 53610  53.2169 290.0450 0001760  56.1724 303.9436 15.08846869 36374,6917.859,95.437,540.942,538.507,0.0
53610.0,STARLINK-4610,PAYLOAD,2023-04-20 11:33:18,15.08842961,9.68e-05,53.2154,286.7722,74.5082,285.6017,8.5589e-05,1.075e-05,0.0,0 STARLINK-4610,1 53610U 22104Y   23110.48145838  .00001075  00000-0  85589-4 0  9994,2 53610  53.2154 286.7722 0000968  74.5082 285.6017 15.08842961 36484,6917.871,95.437,540.406,539.067,0.0
53610.0,STARLINK-4610,PAYLOAD,2023-04-20 17:54:50,15.0884309,0.0001017,53.2155,285.5826,72.1301,287.9802,9.991e-05,1.303e-05,0.0,0 STARLINK-4610,1 53610U 22104Y   23110.74641829  .00001303  00000-0  99910-4 0  9991,2 53610  53.2155 285.5826 0001017  72.1301 287.9802 15.08843090 36527,6917.871,95.437,540.439,539.032,0.0
53610.0,STARLINK-4610,PAYLOAD,2023-04-21 05:02:32,15.08837146,9.59e-05,53.2157,283.5006,60.2602,299.8485,3.4514e-07,-2.82e-06,0.0,0 STARLINK-4610,1 53610U 22104Y   23111.21009946 -.00000282  00000-0  34514-6 0  9999,2 53610  53.2157 283.5006 0000959  60.2602 299.8485 15.08837146 36022,6917.889,95.438,540.418,539.091,0.0
53610.0,STARLINK-4610,PAYLOAD,2023-04-21 20:56:23,15.08842795,0.000125,53.2161,280.528,54.0801,306.0307,7.4045e-05,8.91e-06,0.0,0 STARLINK-4610,1 53610U 22104Y   23111.87249962  .00000891  00000-0  74045-4 0  9991,2 53610  53.2161 280.5280 0001250  54.0801 306.0307 15.08842795 36698,6917.872,95.437,540.602,538.872,0.0
53610.0,STARLINK-4610,PAYLOAD,2023-04-22 04:53:19,15.08840521,0.0001541,53.217,279.0422,43.7712,316.3402,6.9805e-05,8.23e-06,0.0,0 STARLINK-4610,1 53610U 22104Y   23112.20370177  .00000823  00000-0  69805-4 0  9995,2 53610  53.2170 279.0422 0001541  43.7712 316.3402 15.08840521 36749,6917.879,95.438,540.81,538.678,0.0
53610.0,STARLINK-4610,PAYLOAD,2023-04-23 12:41:02,15.08832564,9.05e-05,53.2166,273.0884,103.4063,256.703,3.9343e-06,-2.25e-06,0.0,0 STARLINK-4610,1 53610U 22104Y   23113.52850455 -.00000225  00000-0  39343-5 0  9995,2 53610  53.2166 273.0884 0000905 103.4063 256.7030 15.08832564 36377,6917.903,95.438,540.394,539.142,0.0
53610.0,STARLINK-4610,PAYLOAD,2023-04-23 20:37:58,15.0884419,0.0001241,53.2154,271.6044,70.418,289.6946,5.9305e-05,6.56e-06,0.0,0 STARLINK-4610,1 53610U 22104Y   23113.85970054  .00000656  00000-0  59305-4 0  9995,2 53610  53.2154 271.6044 0001241  70.4180 289.6946 15.08844190 36990,6917.868,95.437,540.591,538.874,0.0
53610.0,STARLINK-4610,PAYLOAD,2023-04-24 02:59:30,15.08849471,0.000103,53.2157,270.4139,76.6854,283.4253,0.00015297,2.148e-05,0.0,0 STARLINK-4610,1 53610U 22104Y   23114.12465708  .00002148  00000-0  15297-3 0  9990,2 53610  53.2157 270.4139 0001030  76.6854 283.4253 15.08849471 36469,6917.851,95.437,540.429,539.004,0.0
53610.0,STARLINK-4610,PAYLOAD,2023-04-24 10:56:25,15.08874548,0.0001071,53.2163,268.9271,75.4283,284.6828,0.00078896,0.00012302,0.0,0 STARLINK-4610,1 53610U 22104Y   23114.45584926  .00012302  00000-0  78896-3 0  9997,2 53610  53.2163 268.9271 0001071  75.4283 284.6828 15.08874548 36513,6917.775,95.435,540.381,538.899,0.0
53610.0,STARLINK-4610,PAYLOAD,2023-04-25 02:50:17,15.08829927,0.0002049,53.2165,265.9538,92.7793,267.3434,-0.00042848,-7.099e-05,0.0,0 STARLINK-4610,1 53610U 22104Y   23115.11825625 -.00007099  00000-0 -42848-3 0  9992,2 53610  53.2165 265.9538 0002049  92.7793 267.3434 15.08829927 36615,6917.911,95.438,541.194,538.359,0.0
53610.0,STARLINK-4610,PAYLOAD,2023-04-25 10:47:13,15.08795769,0.0001081,53.2163,264.4661,113.5091,246.6015,-0.0013685,-0.00021975,0.0,0 STARLINK-4610,1 53610U 22104Y   23115.44946488 -.00021975  00000-0 -13685-2 0  9994,2 53610  53.2163 264.4661 0001081 113.5091 246.6015 15.08795769 36668,6918.016,95.44,540.628,539.133,0.0
53610.0,STARLINK-4610,PAYLOAD,2023-04-26 10:38:02,15.08809507,1.09e-05,53.218,260.008,138.0814,222.0187,0.00028033,4.173e-05,0.0,0 STARLINK-4610,1 53610U 22104Y   23116.44308335  .00004173  00000-0  28033-3 0  9991,2 53610  53.2180 260.0080 0000109 138.0814 222.0187 15.08809507 37383,6917.974,95.439,539.914,539.763,0.0
